ONEWEB-0136             
1 47282U 20100AA  25312.63742539 -.00000285  00000+0 -82823-3 0  9990
2 47282  87.8976  34.4585 0002141  98.7389 261.3982 13.12440580235730
ONEWEB-0137             
1 47283U 20100AB  25312.67150375  .00000348  00000+0  93252-3 0  9992
2 47283  87.8970  34.4576 0001615  96.2566 263.8746 13.12444812235647
ONEWEB-0138             
1 47284U 20100AC  25312.26921429 -.00000519  00000+0 -14772-2 0  9995
2 47284  87.8973  34.5466 0002008 100.0710 260.0645 13.12443110235672
ONEWEB-0139             
1 47285U 20100AD  25312.68949613  .00000352  00000+0  94279-3 0  9991
2 47285  87.8973  34.4532 0001811 101.3320 258.8012 13.12441738235800
ONEWEB-0140             
1 47286U 20100AE  25312.64391167 -.00000390  00000+0 -11207-2 0  9996
2 47286  87.8973  34.4481 0001876 100.4941 259.6399 13.12441037235768
ONEWEB-0141             
1 47287U 20100AF  25312.68921796  .00000417  00000+0  11243-2 0  9996
2 47287  87.8968  34.4506 0001547  93.2416 266.8890 13.12442447235753
ONEWEB-0142             
1 47288U 20100AG  25312.67812985  .00000448  00000+0  12086-2 0  9995
2 47288  87.8982  34.4746 0001688  86.0552 274.0769 13.12442518235747
ONEWEB-0143             
1 47289U 20100AH  25312.68772456  .00000406  00000+0  10929-2 0  9993
2 47289  87.8975  34.4682 0001753 102.9394 257.1930 13.12441135235728
